ONEWEB-0395             
1 50475U 21132G   25272.00319199 -.00000126  00000+0 -39095-3 0  9999
2 50475  87.8787  73.1039 0001834  88.7428 271.3910 13.11413659181483
ONEWEB-0396             
1 50476U 21132H   25272.75896660  .00000142  00000+0  32760-3 0  9993
2 50476  87.9215  27.1641 0001722  93.0583 267.0746 13.18685425187312
ONEWEB-0397             
1 50477U 21132J   25272.69793319  .00000014  00000+0  39141-5 0  9994
2 50477  87.9217  27.1767 0001610  92.0958 268.0358 13.18686817187287
ONEWEB-0398             
1 50478U 21132K   25272.81022661 -.00002347  00000+0 -66566-2 0  9995
2 50478  87.8795  72.9094 0001782 101.4057 258.7271 13.11440736181481
ONEWEB-0399             
1 50479U 21132L   25271.88112536 -.00000009  00000+0 -61298-4 0  9995
2 50479  87.8793  73.1155 0001849  75.5038 284.6295 13.11419046181355
ONEWEB-0400             
1 50480U 21132M   25272.82823769 -.00000015  00000+0 -70813-4 0  9999
2 50480  87.9215  27.1409 0001858 104.6908 255.4430 13.18687157187291
ONEWEB-0401             
1 50481U 21132N   25272.79689796  .00000075  00000+0  15803-3 0  9997
2 50481  87.9217  27.1440 0001526  97.5515 262.5791 13.18688235187292
ONEWEB-0402             
1 50482U 21132P   25272.76061603  .00000091  00000+0  19935-3 0  9994
2 50482  87.9215  27.1442 0001091  94.5214 265.6042 13.18687479187318
